OBJECT_NAME,OBJECT_ID,EPOCH,MEAN_MOTION,ECCENTRICITY,INCLINATION,RA_OF_ASC_NODE,ARG_OF_PERICENTER,MEAN_ANOMALY,EPHEMERIS_TYPE,CLASSIFICATION_TYPE,NORAD_CAT_ID,ELEMENT_SET_NO,REV_AT_EPOCH,BSTAR,MEAN_MOTION_DOT,MEAN_MOTION_DDOT
STARLINK-30586,2023-160K,2023-10-26T16:00:00.999936,15.87986597,.0001725,43.0000,119.4729,277.0371,159.1051,0,U,58084,999,259,-.31722E-2,-.814362E-2,0
STARLINK-30609,2023-160L,2023-10-26T16:00:00.999936,15.88048503,.0001623,43.0000,119.4643,275.0460,164.4773,0,U,58085,999,259,-.322E-2,-.82789E-2,0
STARLINK-30583,2023-160M,2023-10-26T16:00:00.999936,15.88092326,.0001855,43.0001,119.4584,278.8636,162.9796,0,U,58086,999,259,-.32578E-2,-.838533E-2,0
STARLINK-30557,2023-160N,2023-10-26T16:00:00.999936,15.88010902,.0001658,43.0003,119.4697,276.0919,161.4391,0,U,58087,999,259,-.31889E-2,-.819174E-2,0
STARLINK-30591,2023-160P,2023-10-26T16:00:00.999936,15.88164038,.0001632,43.0002,119.4491,270.1609,175.5392,0,U,58088,999,259,-.33252E-2,-.857063E-2,0
STARLINK-30584,2023-160Q,2023-10-26T16:00:00.999936,15.88193556,.0001866,43.0002,119.4446,283.4769,164.1330,0,U,58089,999,255,-.333E-2,-.859445E-2,0
STARLINK-30590,2023-160R,2023-10-26T16:00:00.999936,15.88124447,.0001829,43.0004,119.4546,283.5879,160.0963,0,U,58090,999,259,-.32764E-2,-.844134E-2,0
STARLINK-30608,2023-160S,2023-10-26T16:00:00.999936,15.88203776,.000132,43.0002,119.4423,281.4795,167.0940,0,U,58091,999,255,-.33136E-2,-.855784E-2,0
STARLINK-30615,2023-160T,2023-10-26T16:00:00.999936,15.88271529,.0001656,42.9995,119.4332,274.4358,177.7650,0,U,58092,999,255,-.34022E-2,-.879427E-2,0
STARLINK-30578,2023-160U,2023-10-26T16:00:00.999936,15.88246363,.0001442,43.0001,119.4366,281.5632,169.1447,0,U,58093,999,255,-.33757E-2,-.87211E-2,0
STARLINK-30574,2023-160V,2023-10-26T16:00:00.999936,15.88315992,.0001923,43.0002,119.4266,269.8389,184.7347,0,U,58094,999,259,-.34575E-2,-.89432E-2,0
STARLINK-30570,2023-160W,2023-10-26T16:00:00.999936,15.88356721,.0001507,42.9999,119.4206,274.3282,182.6796,0,U,58095,999,255,-.34931E-2,-.904168E-2,0
STARLINK-30581,2023-160X,2023-10-26T16:00:00.999936,15.88392503,.0001859,43.0001,119.4151,280.6108,178.5708,0,U,58096,999,259,-.35274E-2,-.913845E-2,0
STARLINK A,2023-161A,2023-10-26T16:00:00.999936,15.89977098,.0000852,53.0565,218.1676,81.7836,322.7928,0,U,58097,999,195,-.28094E-2,-.790282E-2,0
STARLINK B,2023-161B,2023-10-26T16:00:00.999936,15.89970840,.00006,53.0569,218.1672,83.6436,321.1026,0,U,58098,999,195,-.27927E-2,-.785664E-2,0
STARLINK C,2023-161C,2023-10-26T16:00:00.999936,15.90094874,.0000512,53.0564,218.1633,95.0902,311.5695,0,U,58099,999,169,-.28293E-2,-.799737E-2,0
STARLINK D,2023-161D,2023-10-26T16:00:00.999936,15.90046405,.0000681,53.0565,218.1648,87.6056,318.2527,0,U,58100,999,195,-.28181E-2,-.795066E-2,0
STARLINK E,2023-161E,2023-10-26T16:00:00.999936,15.90133291,.0000597,53.0566,218.1620,90.5715,316.7678,0,U,58101,999,195,-.2839E-2,-.803726E-2,0
STARLINK F,2023-161F,2023-10-26T16:00:00.999936,15.90227007,.0000662,53.0566,218.1590,78.9932,329.6772,0,U,58102,999,195,-.28716E-2,-.815785E-2,0
STARLINK G,2023-161G,2023-10-26T16:00:00.999936,15.90293053,.0000661,53.0567,218.1573,86.5341,323.1486,0,U,58103,999,195,-.2883E-2,-.821296E-2,0
STARLINK H,2023-161H,2023-10-26T16:00:00.999936,15.90359932,.0000538,53.0567,218.1551,92.9063,317.7898,0,U,58104,999,195,-.29049E-2,-.829569E-2,0
STARLINK J,2023-161J,2023-10-26T16:00:00.999936,15.90439841,.0000545,53.0568,218.1526,82.8876,328.9920,0,U,58105,999,195,-.29237E-2,-.837618E-2,0
STARLINK K,2023-161K,2023-10-26T16:00:00.999936,15.90480336,.0000593,53.0568,218.1513,94.8692,317.7149,0,U,58106,999,180,-.2938E-2,-.842978E-2,0
STARLINK L,2023-161L,2023-10-26T16:00:00.999936,15.90580268,.0000688,53.0570,218.1483,83.5977,330.3996,0,U,58107,999,195,-.29663E-2,-.85442E-2,0
STARLINK M,2023-161M,2023-10-26T16:00:00.999936,15.90605868,.0000467,53.0570,218.1473,112.3920,302.1230,0,U,58108,999,195,-.29808E-2,-.859188E-2,0
STARLINK N,2023-161N,2023-10-26T16:00:00.999936,15.90672515,.0000567,53.0571,218.1453,90.3556,325.1969,0,U,58109,999,195,-.29907E-2,-.864526E-2,0
STARLINK P,2023-161P,2023-10-26T16:00:00.999936,15.90733221,.0000672,53.0572,218.1434,79.9273,336.5719,0,U,58110,999,195,-.30077E-2,-.871519E-2,0
STARLINK Q,2023-161Q,2023-10-26T16:00:00.999936,15.90810395,.0000527,53.0573,218.1411,94.1005,323.5449,0,U,58111,999,195,-.30344E-2,-.970963E-2,.28681E-3
STARLINK R,2023-161R,2023-10-26T16:00:00.999936,15.90872031,.0000589,53.0571,218.1390,91.2258,327.3897,0,U,58112,999,206,-.30491E-2,-.978683E-2,.29112E-3
STARLINK S,2023-161S,2023-10-26T16:00:00.999936,15.90941546,.0000523,53.0571,218.1367,102.0195,317.6492,0,U,58113,999,195,-.30743E-2,-.990182E-2,.29754E-3
