STARLINK-30586          
1 58084U 23160K   23299.66667824 -.00814362  00000+0 -31722-2 0  9999
2 58084  43.0000 119.4729 0001725 277.0371 159.1051 15.87986597  2592
STARLINK-30609          
1 58085U 23160L   23299.66667824 -.00827890  00000+0 -32200-2 0  9992
2 58085  43.0000 119.4643 0001623 275.0460 164.4773 15.88048503  2599
STARLINK-30583          
1 58086U 23160M   23299.66667824 -.00838533  00000+0 -32578-2 0  9997
2 58086  43.0001 119.4584 0001855 278.8636 162.9796 15.88092326  2598
STARLINK-30557          
1 58087U 23160N   23299.66667824 -.00819174  00000+0 -31889-2 0  9992
2 58087  43.0003 119.4697 0001658 276.0919 161.4391 15.88010902  2596
STARLINK-30591          
1 58088U 23160P   23299.66667824 -.00857063  00000+0 -33252-2 0  9998
2 58088  43.0002 119.4491 0001632 270.1609 175.5392 15.88164038  2598
STARLINK-30584          
1 58089U 23160Q   23299.66667824 -.00859445  00000+0 -33300-2 0  9999
2 58089  43.0002 119.4446 0001866 283.4769 164.1330 15.88193556  2551
STARLINK-30590          
1 58090U 23160R   23299.66667824 -.00844134  00000+0 -32764-2 0  9993
2 58090  43.0004 119.4546 0001829 283.5879 160.0963 15.88124447  2592
STARLINK-30608          
1 58091U 23160S   23299.66667824 -.00855784  00000+0 -33136-2 0  9991
2 58091  43.0002 119.4423 0001320 281.4795 167.0940 15.88203776  2556
STARLINK-30615          
1 58092U 23160T   23299.66667824 -.00879427  00000+0 -34022-2 0  9997
2 58092  42.9995 119.4332 0001656 274.4358 177.7650 15.88271529  2551
STARLINK-30578          
1 58093U 23160U   23299.66667824 -.00872110  00000+0 -33757-2 0  9994
2 58093  43.0001 119.4366 0001442 281.5632 169.1447 15.88246363  2553
STARLINK-30574          
1 58094U 23160V   23299.66667824 -.00894320  00000+0 -34575-2 0  9991
2 58094  43.0002 119.4266 0001923 269.8389 184.7347 15.88315992  2597
STARLINK-30570          
1 58095U 23160W   23299.66667824 -.00904168  00000+0 -34931-2 0  9990
2 58095  42.9999 119.4206 0001507 274.3282 182.6796 15.88356721  2552
STARLINK-30581          
1 58096U 23160X   23299.66667824 -.00913845  00000+0 -35274-2 0  9994
2 58096  43.0001 119.4151 0001859 280.6108 178.5708 15.88392503  2594
STARLINK A              
1 58097U 23161A   23299.66667824 -.00790282  00000+0 -28094-2 0  9996
2 58097  53.0565 218.1676 0000852  81.7836 322.7928 15.89977098  1955
STARLINK B              
1 58098U 23161B   23299.66667824 -.00785664  00000+0 -27927-2 0  9999
2 58098  53.0569 218.1672 0000600  83.6436 321.1026 15.89970840  1954
STARLINK C              
1 58099U 23161C   23299.66667824 -.00799737  00000+0 -28293-2 0  9993
2 58099  53.0564 218.1633 0000512  95.0902 311.5695 15.90094874  1696
STARLINK D              
1 58100U 23161D   23299.66667824 -.00795066  00000+0 -28181-2 0  9993
2 58100  53.0565 218.1648 0000681  87.6056 318.2527 15.90046405  1954
STARLINK E              
1 58101U 23161E   23299.66667824 -.00803726  00000+0 -28390-2 0  9999
2 58101  53.0566 218.1620 0000597  90.5715 316.7678 15.90133291  1957
STARLINK F              
1 58102U 23161F   23299.66667824 -.00815785  00000+0 -28716-2 0  9990
2 58102  53.0566 218.1590 0000662  78.9932 329.6772 15.90227007  1955
STARLINK G              
1 58103U 23161G   23299.66667824 -.00821296  00000+0 -28830-2 0  9992
2 58103  53.0567 218.1573 0000661  86.5341 323.1486 15.90293053  1951
STARLINK H              
1 58104U 23161H   23299.66667824 -.00829569  00000+0 -29049-2 0  9997
2 58104  53.0567 218.1551 0000538  92.9063 317.7898 15.90359932  1958
STARLINK J              
1 58105U 23161J   23299.66667824 -.00837618  00000+0 -29237-2 0  9991
2 58105  53.0568 218.1526 0000545  82.8876 328.9920 15.90439841  1958
STARLINK K              
1 58106U 23161K   23299.66667824 -.00842978  00000+0 -29380-2 0  9996
2 58106  53.0568 218.1513 0000593  94.8692 317.7149 15.90480336  1805
STARLINK L              
1 58107U 23161L   23299.66667824 -.00854420  00000+0 -29663-2 0  9996
2 58107  53.0570 218.1483 0000688  83.5977 330.3996 15.90580268  1953
STARLINK M              
1 58108U 23161M   23299.66667824 -.00859188  00000+0 -29808-2 0  9994
2 58108  53.0570 218.1473 0000467 112.3920 302.1230 15.90605868  1959
STARLINK N              
1 58109U 23161N   23299.66667824 -.00864526  00000+0 -29907-2 0  9997
2 58109  53.0571 218.1453 0000567  90.3556 325.1969 15.90672515  1957
STARLINK P              
1 58110U 23161P   23299.66667824 -.00871519  00000+0 -30077-2 0  9999
2 58110  53.0572 218.1434 0000672  79.9273 336.5719 15.90733221  1956
STARLINK Q              
1 58111U 23161Q   23299.66667824 -.00970963  28681-3 -30344-2 0  9999
2 58111  53.0573 218.1411 0000527  94.1005 323.5449 15.90810395  1958
STARLINK R              
1 58112U 23161R   23299.66667824 -.00978683  29112-3 -30491-2 0  9990
2 58112  53.0571 218.1390 0000589  91.2258 327.3897 15.90872031  2066
STARLINK S              
1 58113U 23161S   23299.66667824 -.00990182  29754-3 -30743-2 0  9991
2 58113  53.0571 218.1367 0000523 102.0195 317.6492 15.90941546  1958
